[{"OBJECT_NAME":"DRUMS","OBJECT_ID":"2021-102G","EPOCH":"2026-03-09T16:02:04.019712","MEAN_MOTION":15.19452308,"ECCENTRICITY":0.00145193,"INCLINATION":97.3433,"RA_OF_ASC_NODE":108.4998,"ARG_OF_PERICENTER":215.993,"MEAN_ANOMALY":144.0328,"EPHEMERIS_TYPE":0,"CLASSIFICATION_TYPE":"U","NORAD_CAT_ID":49401,"ELEMENT_SET_NO":999,"REV_AT_EPOCH":23846,"BSTAR":0.00031687422,"MEAN_MOTION_DOT":6.67e-5,"MEAN_MOTION_DDOT":0},{"OBJECT_NAME":"PEGASUS DEB","OBJECT_ID":"1994-029ACN","EPOCH":"2026-03-09T14:54:52.276896","MEAN_MOTION":14.88956192,"ECCENTRICITY":0.0150975,"INCLINATION":81.572,"RA_OF_ASC_NODE":286.6806,"ARG_OF_PERICENTER":308.5515,"MEAN_ANOMALY":50.2248,"EPHEMERIS_TYPE":0,"CLASSIFICATION_TYPE":"U","NORAD_CAT_ID":24980,"ELEMENT_SET_NO":999,"REV_AT_EPOCH":53329,"BSTAR":0.0016647,"MEAN_MOTION_DOT":0.00019427,"MEAN_MOTION_DDOT":0}]
